{
  "type": "FeatureCollection",
  "features": [
    {
      "type": "Feature",
      "properties": {
        "norad_id": 58647,
        "name": "TIANMU-1 13",
        "group": "weather",
        "lat": -41.1770688824193,
        "lon": 170.95387062661925,
        "alt_km": 499.1717908499113,
        "timestamp": "2025-12-03T15:48:02.748659+00:00",
        "meta_object_name": "TIANMU-1 13",
        "meta_object_id": "2023-205C",
        "meta_epoch": "2025-12-03T06:57:14.642784",
        "meta_mean_motion": 15.24333269,
        "meta_eccentricity": 0.00064097,
        "meta_inclination": 97.3628,
        "meta_ra_of_asc_node": 357.0863,
        "meta_arg_of_pericenter": 309.7826,
        "meta_mean_anomaly": 50.2847,
        "meta_ephemeris_type": 0,
        "meta_classification_type": "U",
        "meta_norad_cat_id": 58647,
        "meta_element_set_no": 999,
        "meta_rev_at_epoch": 10763,
        "meta_bstar": 0.00035723465,
        "meta_mean_motion_dot": 8.675e-05,
        "meta_mean_motion_ddot": 0,
        "tle_line1": "1 58647U 23205C   25337.28975281  .00008675  00000+0  35723-3 0  9992",
        "tle_line2": "2 58647  97.3628 357.0863 0006409 309.7826  50.2847 15.24333269107634"
      },
      "geometry": {
        "type": "Point",
        "coordinates": [
          170.95387062661925,
          -41.1770688824193
        ]
      }
    },
    {
      "type": "Feature",
      "properties": {
        "norad_id": 58648,
        "name": "TIANMU-1 14",
        "group": "weather",
        "lat": -46.447350375991554,
        "lon": 4.615198038886695,
        "alt_km": 494.6347605681458,
        "timestamp": "2025-12-03T15:48:02.748685+00:00",
        "meta_object_name": "TIANMU-1 14",
        "meta_object_id": "2023-205D",
        "meta_epoch": "2025-12-03T08:07:43.338720",
        "meta_mean_motion": 15.24319049,
        "meta_eccentricity": 0.00073048,
        "meta_inclination": 97.3559,
        "meta_ra_of_asc_node": 356.4918,
        "meta_arg_of_pericenter": 313.7637,
        "meta_mean_anomaly": 46.2996,
        "meta_ephemeris_type": 0,
        "meta_classification_type": "U",
        "meta_norad_cat_id": 58648,
        "meta_element_set_no": 999,
        "meta_rev_at_epoch": 10764,
        "meta_bstar": 0.00036652164,
        "meta_mean_motion_dot": 8.901e-05,
        "meta_mean_motion_ddot": 0,
        "tle_line1": "1 58648U 23205D   25337.33869605  .00008901  00000+0  36652-3 0  9995",
        "tle_line2": "2 58648  97.3559 356.4918 0007304 313.7637  46.2996 15.24319049107643"
      },
      "geometry": {
        "type": "Point",
        "coordinates": [
          4.615198038886695,
          -46.447350375991554
        ]
      }
    },
    {
      "type": "Feature",
      "properties": {
        "norad_id": 58660,
        "name": "TIANMU-1 19",
        "group": "weather",
        "lat": 77.33783523133934,
        "lon": -55.721230862406664,
        "alt_km": 478.52152632717207,
        "timestamp": "2025-12-03T15:48:02.748695+00:00",
        "meta_object_name": "TIANMU-1 19",
        "meta_object_id": "2023-208A",
        "meta_epoch": "2025-12-03T09:04:29.523936",
        "meta_mean_motion": 15.27574632,
        "meta_eccentricity": 0.00040907,
        "meta_inclination": 97.4393,
        "meta_ra_of_asc_node": 88.4358,
        "meta_arg_of_pericenter": 294.9411,
        "meta_mean_anomaly": 65.1403,
        "meta_ephemeris_type": 0,
        "meta_classification_type": "U",
        "meta_norad_cat_id": 58660,
        "meta_element_set_no": 999,
        "meta_rev_at_epoch": 10739,
        "meta_bstar": 0.00047178551,
        "meta_mean_motion_dot": 0.00012659,
        "meta_mean_motion_ddot": 0,
        "tle_line1": "1 58660U 23208A   25337.37811949  .00012659  00000+0  47179-3 0  9995",
        "tle_line2": "2 58660  97.4393  88.4358 0004090 294.9411  65.1403 15.27574632107392"
      },
      "geometry": {
        "type": "Point",
        "coordinates": [
          -55.721230862406664,
          77.33783523133934
        ]
      }
    },
    {
      "type": "Feature",
      "properties": {
        "norad_id": 58661,
        "name": "TIANMU-1 20",
        "group": "weather",
        "lat": 43.87180643667657,
        "lon": -83.63560419252264,
        "alt_km": 480.1970249162041,
        "timestamp": "2025-12-03T15:48:02.748705+00:00",
        "meta_object_name": "TIANMU-1 20",
        "meta_object_id": "2023-208B",
        "meta_epoch": "2025-12-03T07:21:17.525376",
        "meta_mean_motion": 15.28765418,
        "meta_eccentricity": 0.00064625,
        "meta_inclination": 97.433,
        "meta_ra_of_asc_node": 88.8027,
        "meta_arg_of_pericenter": 305.3038,
        "meta_mean_anomaly": 54.7597,
        "meta_ephemeris_type": 0,
        "meta_classification_type": "U",
        "meta_norad_cat_id": 58661,
        "meta_element_set_no": 999,
        "meta_rev_at_epoch": 10745,
        "meta_bstar": 0.00043578282,
        "meta_mean_motion_dot": 0.00012123,
        "meta_mean_motion_ddot": 0,
        "tle_line1": "1 58661U 23208B   25337.30645284  .00012123  00000+0  43578-3 0  9991",
        "tle_line2": "2 58661  97.4330  88.8027 0006462 305.3038  54.7597 15.28765418107458"
      },
      "geometry": {
        "type": "Point",
        "coordinates": [
          -83.63560419252264,
          43.87180643667657
        ]
      }
    },
    {
      "type": "Feature",
      "properties": {
        "norad_id": 58662,
        "name": "TIANMU-1 21",
        "group": "weather",
        "lat": 58.26794506303865,
        "lon": 78.8260814846133,
        "alt_km": 468.6271724887456,
        "timestamp": "2025-12-03T15:48:02.748714+00:00",
        "meta_object_name": "TIANMU-1 21",
        "meta_object_id": "2023-208C",
        "meta_epoch": "2025-12-03T07:42:06.694848",
        "meta_mean_motion": 15.31229455,
        "meta_eccentricity": 0.0005973,
        "meta_inclination": 97.4377,
        "meta_ra_of_asc_node": 90.6837,
        "meta_arg_of_pericenter": 299.5412,
        "meta_mean_anomaly": 60.5233,
        "meta_ephemeris_type": 0,
        "meta_classification_type": "U",
        "meta_norad_cat_id": 58662,
        "meta_element_set_no": 999,
        "meta_rev_at_epoch": 10755,
        "meta_bstar": 0.00049168704,
        "meta_mean_motion_dot": 0.00014774,
        "meta_mean_motion_ddot": 0,
        "tle_line1": "1 58662U 23208C   25337.32091082  .00014774  00000+0  49169-3 0  9991",
        "tle_line2": "2 58662  97.4377  90.6837 0005973 299.5412  60.5233 15.31229455107559"
      },
      "geometry": {
        "type": "Point",
        "coordinates": [
          78.8260814846133,
          58.26794506303865
        ]
      }
    },
    {
      "type": "Feature",
      "properties": {
        "norad_id": 58663,
        "name": "TIANMU-1 22",
        "group": "weather",
        "lat": 69.43264426258699,
        "lon": -70.84393228120416,
        "alt_km": 478.5995498591601,
        "timestamp": "2025-12-03T15:48:02.748723+00:00",
        "meta_object_name": "TIANMU-1 22",
        "meta_object_id": "2023-208D",
        "meta_epoch": "2025-12-03T07:27:45.470880",
        "meta_mean_motion": 15.27346878,
        "meta_eccentricity": 0.00030737,
        "meta_inclination": 97.4387,
        "meta_ra_of_asc_node": 88.432,
        "meta_arg_of_pericenter": 331.518,
        "meta_mean_anomaly": 28.589,
        "meta_ephemeris_type": 0,
        "meta_classification_type": "U",
        "meta_norad_cat_id": 58663,
        "meta_element_set_no": 999,
        "meta_rev_at_epoch": 10739,
        "meta_bstar": 0.00043827622,
        "meta_mean_motion_dot": 0.00011671,
        "meta_mean_motion_ddot": 0,
        "tle_line1": "1 58663U 23208D   25337.31094295  .00011671  00000+0  43828-3 0  9999",
        "tle_line2": "2 58663  97.4387  88.4320 0003073 331.5180  28.5890 15.27346878107390"
      },
      "geometry": {
        "type": "Point",
        "coordinates": [
          -70.84393228120416,
          69.43264426258699
        ]
      }
    },
    {
      "type": "Feature",
      "properties": {
        "norad_id": 58700,
        "name": "TIANMU-1 15",
        "group": "weather",
        "lat": -26.66929154737479,
        "lon": 162.9356970420829,
        "alt_km": 494.17145526008153,
        "timestamp": "2025-12-03T15:48:02.748732+00:00",
        "meta_object_name": "TIANMU-1 15",
        "meta_object_id": "2024-004A",
        "meta_epoch": "2025-12-03T08:02:30.731424",
        "meta_mean_motion": 15.24476891,
        "meta_eccentricity": 0.00057879,
        "meta_inclination": 97.4625,
        "meta_ra_of_asc_node": 158.8388,
        "meta_arg_of_pericenter": 336.1464,
        "meta_mean_anomaly": 23.9504,
        "meta_ephemeris_type": 0,
        "meta_classification_type": "U",
        "meta_norad_cat_id": 58700,
        "meta_element_set_no": 999,
        "meta_rev_at_epoch": 10591,
        "meta_bstar": 0.00039069392,
        "meta_mean_motion_dot": 9.534e-05,
        "meta_mean_motion_ddot": 0,
        "tle_line1": "1 58700U 24004A   25337.33507791  .00009534  00000+0  39069-3 0  9995",
        "tle_line2": "2 58700  97.4625 158.8388 0005787 336.1464  23.9504 15.24476891105916"
      },
      "geometry": {
        "type": "Point",
        "coordinates": [
          162.9356970420829,
          -26.66929154737479
        ]
      }
    }
  ]
}